TEIKYOSAT-4 (OORURI)    
1 49396U 21102B   26068.67534185  .00002438  00000+0  15740-3 0  9994
2 49396  97.3797 101.9931 0010345 276.5421  83.4630 15.09119208237719
STARLINK-5209           
1 54061U 22136L   26068.84802331  .00001685  00000+0  12387-3 0  9994
2 54061  53.2181 308.0224 0001437  87.1231 272.9926 15.08857145187360
